{"last_updated":"15 Dec 15:51","locations":[{"provider":"Nissan","provider_openid":7,"name":"Nissan Chorley","lat":53.654924893387,"lng":-2.6536330674592,"postcode":"PR7 1NN","source":{"name":"OpenChargeMap","url":"http:\/\/openchargemap.org\/site\/poi\/details\/75481"},"connectors":[{"status":"online","type":{"title":"CHAdeMO","id":1},"power":50,"quantity":1}]},{"provider":"Nissan","provider_openid":7,"name":"Evans Halshaw Nissan Sunderland","lat":54.912097,"lng":-1.454693,"postcode":"SR5 3HR","source":{"name":"OpenChargeMap","url":"http:\/\/openchargemap.org\/site\/poi\/details\/73275"},"connectors":[{"status":"online","type":{"title":"CHAdeMO","id":1},"power":50,"quantity":1}]},{"provider":"Nissan","provider_openid":7,"name":"Macklins Motors (Nissan) Glasgow Central","lat":55.869116964088,"lng":-4.254401922226,"postcode":"G4 0HZ","source":{"name":"OpenChargeMap","url":"http:\/\/openchargemap.org\/site\/poi\/details\/72635"},"connectors":[{"status":"online","type":{"title":"CHAdeMO","id":1},"power":50,"quantity":1}]},{"provider":"Nissan","provider_openid":7,"name":"Western Nissan (Newbridge)","lat":55.940503,"lng":-3.404325,"postcode":"EH28 8TJ","source":{"name":"OpenChargeMap","url":"http:\/\/openchargemap.org\/site\/poi\/details\/72005"},"connectors":[{"status":"online","type":{"title":"CHAdeMO","id":1},"power":50,"quantity":2}]},{"provider":"Nissan","provider_openid":7,"name":"Western Nissan","lat":56.081714,"lng":-3.395164,"postcode":"KY11 7EG","source":{"name":"OpenChargeMap","url":"http:\/\/openchargemap.org\/site\/poi\/details\/70164"},"connectors":[{"status":"online","type":{"title":"CHAdeMO","id":1},"power":50,"quantity":1}]},{"provider":"Nissan","provider_openid":7,"name":"Westway Altrincham Nissan","lat":53.4034235,"lng":-2.3499465,"postcode":"WA14 5LZ","source":{"name":"OpenChargeMap","url":"http:\/\/openchargemap.org\/site\/poi\/details\/66281"},"connectors":[{"status":"online","type":{"title":"CHAdeMO","id":1},"power":50,"quantity":1}]},{"provider":"Nissan","provider_openid":7,"name":"Nissan Leicester","lat":52.654891070792,"lng":-1.1363418575679,"postcode":"LE4 5QU","source":{"name":"OpenChargeMap","url":"http:\/\/openchargemap.org\/site\/poi\/details\/65247"},"connectors":[{"status":"online","type":{"title":"CHAdeMO","id":1},"power":50,"quantity":1}]},{"provider":"Nissan","provider_openid":7,"name":"Sandcliffe Nissan Nottingham","lat":52.9315926,"lng":-1.1717694,"postcode":"NG7 2SZ","source":{"name":"OpenChargeMap","url":"http:\/\/openchargemap.org\/site\/poi\/details\/65229"},"connectors":[{"status":"online","type":{"title":"CHAdeMO","id":1},"power":50,"quantity":null}]},{"provider":"Nissan","provider_openid":7,"name":"Nissan Wessex Garages","lat":51.521494844281,"lng":-2.587902545929,"postcode":"BS34 5BZ","source":{"name":"OpenChargeMap","url":"http:\/\/openchargemap.org\/site\/poi\/details\/64589"},"connectors":[{"status":"online","type":{"title":"CHAdeMO","id":1},"power":50,"quantity":2}]},{"provider":"Nissan","provider_openid":7,"name":" Warrington Motors Nissan","lat":53.4001896,"lng":-2.5936457,"postcode":"WA2 7PE","source":{"name":"OpenChargeMap","url":"http:\/\/openchargemap.org\/site\/poi\/details\/56754"},"connectors":[{"status":"unknown","type":{"title":"CHAdeMO","id":1},"power":50,"quantity":1}]},{"provider":"Nissan","provider_openid":7,"name":"Glyn Hopkins Nissan","lat":52.109127776011,"lng":-0.49880504608154,"postcode":"MK42 7QN","source":{"name":"OpenChargeMap","url":"http:\/\/openchargemap.org\/site\/poi\/details\/56180"},"connectors":[{"status":"online","type":{"title":"CHAdeMO","id":1},"power":50,"quantity":1}]},{"provider":"Nissan","provider_openid":7,"name":"Glyn Hopkin Nissan East London","lat":51.5553896,"lng":0.061670899999967,"postcode":"E12 5LH","source":{"name":"OpenChargeMap","url":"http:\/\/openchargemap.org\/site\/poi\/details\/47939"},"connectors":[{"status":"online","type":{"title":"CHAdeMO","id":1},"power":50,"quantity":1}]},{"provider":"Nissan","provider_openid":7,"name":"Brindley Nissan","lat":52.6767289,"lng":-2.035579,"postcode":"WS11 0BE","source":{"name":"OpenChargeMap","url":"http:\/\/openchargemap.org\/site\/poi\/details\/44483"},"connectors":[{"status":"unknown","type":{"title":"CHAdeMO","id":1},"power":50,"quantity":null}]},{"provider":"Nissan","provider_openid":7,"name":"Chorley Nissan Preston","lat":53.75458,"lng":-2.7164439,"postcode":"PR1 8DT","source":{"name":"OpenChargeMap","url":"http:\/\/openchargemap.org\/site\/poi\/details\/44486"},"connectors":[{"status":"unknown","type":{"title":"CHAdeMO","id":1},"power":50,"quantity":1}]},{"provider":"Nissan","provider_openid":7,"name":"Holdcroft Nissan","lat":53.023909033819,"lng":-2.1564960479736,"postcode":"ST1 6AL","source":{"name":"OpenChargeMap","url":"http:\/\/openchargemap.org\/site\/poi\/details\/44484"},"connectors":[{"status":"unknown","type":{"title":"CHAdeMO","id":1},"power":50,"quantity":1}]},{"provider":"Nissan","provider_openid":7,"name":"Chorley Nissan Wigan","lat":53.541429497596,"lng":-2.642662525177,"postcode":"WN3 5AA","source":{"name":"OpenChargeMap","url":"http:\/\/openchargemap.org\/site\/poi\/details\/42648"},"connectors":[{"status":"online","type":{"title":"CHAdeMO","id":1},"power":50,"quantity":1}]},{"provider":"Nissan","provider_openid":7,"name":"Motorline Nissan Maidstone","lat":51.239371469408,"lng":0.56318879127502,"postcode":"ME15 9XY ","source":{"name":"OpenChargeMap","url":"http:\/\/openchargemap.org\/site\/poi\/details\/42646"},"connectors":[{"status":"online","type":{"title":"CHAdeMO","id":1},"power":50,"quantity":1}]},{"provider":"Nissan","provider_openid":7,"name":"Arnold Clark","lat":55.84637204912,"lng":-4.472973793745,"postcode":"PA1 2BH","source":{"name":"OpenChargeMap","url":"http:\/\/openchargemap.org\/site\/poi\/details\/31352"},"connectors":[{"status":"online","type":{"title":"CHAdeMO","id":1},"power":50,"quantity":1},{"status":"online","type":{"title":"unknown - 1036","id":0},"quantity":1}]},{"provider":"Nissan","provider_openid":7,"name":"Wessex Nissan","lat":51.870807503424,"lng":-2.2471075306474,"postcode":"GL1 2SQ","source":{"name":"OpenChargeMap","url":"http:\/\/openchargemap.org\/site\/poi\/details\/31253"},"connectors":[{"status":"online","type":{"title":"CHAdeMO","id":1},"power":50,"quantity":1}]},{"provider":"Nissan","provider_openid":7,"name":"Bristol Street Motors -  Nissan Dealer","lat":53.36102,"lng":-2.739442,"postcode":"WA8 7AL","source":{"name":"OpenChargeMap","url":"http:\/\/openchargemap.org\/site\/poi\/details\/24365"},"connectors":[{"status":"online","type":{"title":"CHAdeMO","id":1},"power":50,"quantity":1}]},{"provider":"Nissan","provider_openid":7,"name":"Arbury Nissan","lat":52.314664004725,"lng":-2.0661377906799,"postcode":"B60 3AJ","source":{"name":"OpenChargeMap","url":"http:\/\/openchargemap.org\/site\/poi\/details\/24355"},"connectors":[{"status":"online","type":{"title":"CHAdeMO","id":1},"power":50,"quantity":1}]},{"provider":"Nissan","provider_openid":7,"name":"Howards Weston Super Mare","lat":51.3444718,"lng":-2.9683059,"postcode":"BS23 3PT","source":{"name":"OpenChargeMap","url":"http:\/\/openchargemap.org\/site\/poi\/details\/19099"},"connectors":[{"status":"online","type":{"title":"CHAdeMO","id":1},"power":50,"quantity":1}]},{"provider":"Nissan","provider_openid":7,"name":"Nissan London West","lat":51.5207985,"lng":-0.26334680000002,"postcode":"W3 0RZ","source":{"name":"OpenChargeMap","url":"http:\/\/openchargemap.org\/site\/poi\/details\/19070"},"connectors":[{"status":"online","type":{"title":"CHAdeMO","id":1},"power":50,"quantity":1}]},{"provider":"Nissan","provider_openid":7,"name":"Bristol Street Nissan Derby","lat":52.9370019,"lng":-1.4627166,"postcode":"DE21 4PB","source":{"name":"OpenChargeMap","url":"http:\/\/openchargemap.org\/site\/poi\/details\/19067"},"connectors":[{"status":"online","type":{"title":"CHAdeMO","id":1},"power":50,"quantity":1}]},{"provider":"Nissan","provider_openid":7,"name":"Harratts Nissan Sheffield","lat":53.3901517,"lng":-1.4490535,"postcode":"S4 7WW","source":{"name":"OpenChargeMap","url":"http:\/\/openchargemap.org\/site\/poi\/details\/19065"},"connectors":[{"status":"online","type":{"title":"CHAdeMO","id":1},"power":50,"quantity":1}]},{"provider":"Nissan","provider_openid":7,"name":"Nissan Trenton","lat":53.7443882,"lng":-0.40917850000005,"postcode":"HU4 7RA","source":{"name":"OpenChargeMap","url":"http:\/\/openchargemap.org\/site\/poi\/details\/19064"},"connectors":[{"status":"online","type":{"title":"CHAdeMO","id":1},"power":50,"quantity":1}]},{"provider":"Nissan","provider_openid":7,"name":" Macklin Motors Nissan Glasgow","lat":55.810523,"lng":-4.3485043000001,"postcode":"G53 7SD","source":{"name":"OpenChargeMap","url":"http:\/\/openchargemap.org\/site\/poi\/details\/19062"},"connectors":[{"status":"online","type":{"title":"CHAdeMO","id":1},"power":50,"quantity":1}]},{"provider":"Nissan","provider_openid":7,"name":"Yeomans Nissan","lat":50.885410894231,"lng":-1.0410511493683,"postcode":"PO7 7XW","source":{"name":"OpenChargeMap","url":"http:\/\/openchargemap.org\/site\/poi\/details\/18227"},"connectors":[{"status":"offline","type":{"title":"CHAdeMO","id":1},"power":50,"quantity":1}]},{"provider":"Nissan","provider_openid":7,"name":"Glyn Hopkin Nissan","lat":52.0146652,"lng":-0.74333750000005,"postcode":"MK6 4AG","source":{"name":"OpenChargeMap","url":"http:\/\/openchargemap.org\/site\/poi\/details\/16311"},"connectors":[{"status":"online","type":{"title":"CHAdeMO","id":1},"power":50,"quantity":1}]},{"provider":"Nissan","provider_openid":7,"name":"  Wessex Garages (Bristol)","lat":51.463836,"lng":-2.5759,"postcode":"BS5 0TT","source":{"name":"OpenChargeMap","url":"http:\/\/openchargemap.org\/site\/poi\/details\/16217"},"connectors":[{"status":"online","type":{"title":"CHAdeMO","id":1},"power":50,"quantity":1}]},{"provider":"Nissan","provider_openid":7,"name":"Sandcliffe Nissan, Loughborough","lat":52.778368,"lng":-1.218212,"postcode":"LE11 5HN","source":{"name":"OpenChargeMap","url":"http:\/\/openchargemap.org\/site\/poi\/details\/16204"},"connectors":[{"status":"offline","type":{"title":"CHAdeMO","id":1},"power":50,"quantity":1}]},{"provider":"Nissan","provider_openid":7,"name":"Crosby Park Nissan","lat":53.4873835,"lng":-3.0317591,"postcode":"L23 3BJ","source":{"name":"OpenChargeMap","url":"http:\/\/openchargemap.org\/site\/poi\/details\/15313"},"connectors":[{"status":"online","type":{"title":"CHAdeMO","id":1},"power":50,"quantity":1}]},{"provider":"Nissan","provider_openid":7,"name":"Fish Brothers Nissan, Swindon","lat":51.574692,"lng":-1.8325405000001,"postcode":"SN5 5BL","source":{"name":"OpenChargeMap","url":"http:\/\/openchargemap.org\/site\/poi\/details\/15173"},"connectors":[{"status":"online","type":{"title":"CHAdeMO","id":1},"power":50,"quantity":1}]},{"provider":"Nissan","provider_openid":7,"name":"West Way Nissan Mill Hill","lat":51.604041,"lng":-0.239335,"postcode":"NW7 2QR","source":{"name":"OpenChargeMap","url":"http:\/\/openchargemap.org\/site\/poi\/details\/13209"},"connectors":[{"status":"online","type":{"title":"CHAdeMO","id":1},"power":50,"quantity":1}]},{"provider":"Nissan","provider_openid":7,"name":"Hurst Nissan Centre Belfast","lat":54.576298,"lng":-5.964298,"postcode":"BT12 6LR","source":{"name":"OpenChargeMap","url":"http:\/\/openchargemap.org\/site\/poi\/details\/4124"},"connectors":[{"status":"online","type":{"title":"CHAdeMO","id":1},"power":50,"quantity":1}]},{"provider":"Nissan","provider_openid":7,"name":"Yeomans Nissan","lat":50.8173833,"lng":-0.3499895,"postcode":"BN11 2NR","source":{"name":"OpenChargeMap","url":"http:\/\/openchargemap.org\/site\/poi\/details\/5759"},"connectors":[{"status":"online","type":{"title":"CHAdeMO","id":1},"power":50,"quantity":1}]},{"provider":"Nissan","provider_openid":7,"name":"Desira Nissan","lat":52.6612517,"lng":1.2827268,"postcode":"NR6 6AQ","source":{"name":"OpenChargeMap","url":"http:\/\/openchargemap.org\/site\/poi\/details\/5839"},"connectors":[{"status":"online","type":{"title":"CHAdeMO","id":1},"power":50,"quantity":1}]},{"provider":"Nissan","provider_openid":7,"name":"Colliers Nissan","lat":52.4524081,"lng":-1.8335746,"postcode":"B11 2ES","source":{"name":"OpenChargeMap","url":"http:\/\/openchargemap.org\/site\/poi\/details\/5850"},"connectors":[{"status":"online","type":{"title":"CHAdeMO","id":1},"power":50,"quantity":1}]},{"provider":"Nissan","provider_openid":7,"name":"Colliers Nissan","lat":52.4524081,"lng":-1.8335746,"postcode":"B11 2ES","source":{"name":"OpenChargeMap","url":"http:\/\/openchargemap.org\/site\/poi\/details\/5850"},"connectors":[{"status":"online","type":{"title":"CHAdeMO","id":1},"power":50,"quantity":1}]},{"provider":"Nissan","provider_openid":7,"name":"Westover Nissan","lat":50.7528207,"lng":-1.9293365,"postcode":"BH11 8PT","source":{"name":"OpenChargeMap","url":"http:\/\/openchargemap.org\/site\/poi\/details\/5456"},"connectors":[{"status":"online","type":{"title":"CHAdeMO","id":1},"power":50,"quantity":1}]},{"provider":"Nissan","provider_openid":7,"name":"Glyn Hopkin Nissan Romford","lat":51.5744841,"lng":0.1601643,"postcode":"RM7 9NP","source":{"name":"OpenChargeMap","url":"http:\/\/openchargemap.org\/site\/poi\/details\/5463"},"connectors":[{"status":"online","type":{"title":"CHAdeMO","id":1},"power":50,"quantity":1}]},{"provider":"Nissan","provider_openid":7,"name":"Ancaster Nissan","lat":51.4511265,"lng":0.0506186,"postcode":"SE9 1DH","source":{"name":"OpenChargeMap","url":"http:\/\/openchargemap.org\/site\/poi\/details\/5494"},"connectors":[{"status":"online","type":{"title":"CHAdeMO","id":1},"power":50,"quantity":1}]},{"provider":"Nissan","provider_openid":7,"name":"Nissan HQ B","lat":51.625528,"lng":-0.506556,"postcode":"WD3 9YS","source":{"name":"OpenChargeMap","url":"http:\/\/openchargemap.org\/site\/poi\/details\/5546"},"connectors":[{"status":"online","type":{"title":"CHAdeMO","id":1},"power":50,"quantity":2}]},{"provider":"Nissan","provider_openid":7,"name":"Benfield Motors","lat":54.978947,"lng":-1.599306,"postcode":"NE2 1AR","source":{"name":"OpenChargeMap","url":"http:\/\/openchargemap.org\/site\/poi\/details\/5543"},"connectors":[{"status":"online","type":{"title":"CHAdeMO","id":1},"power":50,"quantity":1}]},{"provider":"Nissan","provider_openid":7,"name":"Motorline Nissan (Oxford)","lat":51.830681,"lng":-1.3083918,"postcode":"OX5 1FJ","source":{"name":"OpenChargeMap","url":"http:\/\/openchargemap.org\/site\/poi\/details\/4355"},"connectors":[{"status":"online","type":{"title":"CHAdeMO","id":1},"power":50,"quantity":1}]},{"provider":"Nissan","provider_openid":7,"name":"FJ Chalke Nissan","lat":51.05081,"lng":-2.421706,"postcode":"BA9 9RT","source":{"name":"OpenChargeMap","url":"http:\/\/openchargemap.org\/site\/poi\/details\/4142"},"connectors":[{"status":"online","type":{"title":"CHAdeMO","id":1},"power":50,"quantity":1}]},{"provider":"Nissan","provider_openid":7,"name":"Fred Coupe Nissan (Preston)","lat":53.747227,"lng":-2.672941,"postcode":"PR5 4JB","source":{"name":"OpenChargeMap","url":"http:\/\/openchargemap.org\/site\/poi\/details\/4125"},"connectors":[{"status":"online","type":{"title":"CHAdeMO","id":1},"power":50,"quantity":1}]},{"provider":"Nissan","provider_openid":7,"name":"Bristol Street Motors, Halifax","lat":53.716684,"lng":-1.858056,"postcode":"HX1 2ND","source":{"name":"OpenChargeMap","url":"http:\/\/openchargemap.org\/site\/poi\/details\/4126"},"connectors":[{"status":"online","type":{"title":"CHAdeMO","id":1},"power":50,"quantity":1}]},{"provider":"Nissan","provider_openid":7,"name":"West Way Manchester Nissan","lat":53.473846457782,"lng":-2.2168778492127,"postcode":"M12 6JZ","source":{"name":"OpenChargeMap","url":"http:\/\/openchargemap.org\/site\/poi\/details\/4127"},"connectors":[{"status":"online","type":{"title":"CHAdeMO","id":1},"power":50,"quantity":1}]},{"provider":"Nissan","provider_openid":7,"name":"West Way Birmingham Nissan","lat":52.576564,"lng":-1.88341,"postcode":"B74 2HE","source":{"name":"OpenChargeMap","url":"http:\/\/openchargemap.org\/site\/poi\/details\/4129"},"connectors":[{"status":"online","type":{"title":"CHAdeMO","id":1},"power":50,"quantity":1}]},{"provider":"Nissan","provider_openid":7,"name":"West Way Nissan Stourbridge","lat":52.473774,"lng":-2.140522,"postcode":"DY5 3LS","source":{"name":"OpenChargeMap","url":"http:\/\/openchargemap.org\/site\/poi\/details\/4130"},"connectors":[{"status":"online","type":{"title":"CHAdeMO","id":1},"power":50,"quantity":1}]},{"provider":"Nissan","provider_openid":7,"name":"Smiths Nissan Peterborough","lat":52.598366702005,"lng":-0.27118576721193,"postcode":"PE3 8YL","source":{"name":"OpenChargeMap","url":"http:\/\/openchargemap.org\/site\/poi\/details\/4131"},"connectors":[{"status":"online","type":{"title":"CHAdeMO","id":1},"power":50,"quantity":1}]},{"provider":"Nissan","provider_openid":7,"name":"Glyn Hopkin Ltd Colchester","lat":51.884329247364,"lng":0.91393053531647,"postcode":"CO1 2GN","source":{"name":"OpenChargeMap","url":"http:\/\/openchargemap.org\/site\/poi\/details\/4132"},"connectors":[{"status":"online","type":{"title":"CHAdeMO","id":1},"power":50,"quantity":1}]},{"provider":"Nissan","provider_openid":7,"name":"Glyn Hopkin Nissan","lat":51.682560967073,"lng":0.0011157989501953,"postcode":"EN9 1JD","source":{"name":"OpenChargeMap","url":"http:\/\/openchargemap.org\/site\/poi\/details\/4134"},"connectors":[{"status":"online","type":{"title":"CHAdeMO","id":1},"power":50,"quantity":1}]},{"provider":"Nissan","provider_openid":7,"name":"West Way Stockport Nissan","lat":53.408496,"lng":-2.149898,"postcode":"SK1 4AA","source":{"name":"OpenChargeMap","url":"http:\/\/openchargemap.org\/site\/poi\/details\/4128"},"connectors":[{"status":"online","type":{"title":"CHAdeMO","id":1},"power":50,"quantity":1}]}]}