{"last_updated":"15 Dec 15:51","locations":[{"provider":"PodPoint","provider_openid":3,"name":"Kakushin Ltd","lat":51.474023,"lng":-0.200723,"postcode":"SW6 4TW","source":{"name":"OpenChargeMap","url":"http:\/\/openchargemap.org\/site\/poi\/details\/75474"},"connectors":[{"power":22,"status":"online","type":{"title":"AC (socket)","id":4},"quantity":1}]},{"provider":"PodPoint","provider_openid":3,"name":"Hollybrook Limited - University of the Arts London","lat":51.474456,"lng":-0.079839,"postcode":"SE5 8UH","source":{"name":"OpenChargeMap","url":"http:\/\/openchargemap.org\/site\/poi\/details\/74830"},"connectors":[{"power":22,"status":"online","type":{"title":"AC (socket)","id":4},"quantity":2}]},{"provider":"PodPoint","provider_openid":3,"name":"Bank of America Merrill Lynch","lat":51.516428,"lng":-0.101677,"postcode":"EC1M 1HQ","source":{"name":"OpenChargeMap","url":"http:\/\/openchargemap.org\/site\/poi\/details\/73314"},"connectors":[{"power":22,"status":"online","type":{"title":"AC (socket)","id":4},"quantity":6}]},{"provider":"PodPoint","provider_openid":3,"name":"Resorts World Birmingham","lat":52.447472,"lng":-1.71647,"postcode":"B40 1PU","source":{"name":"OpenChargeMap","url":"http:\/\/openchargemap.org\/site\/poi\/details\/73303"},"connectors":[{"power":22,"status":"online","type":{"title":"AC (socket)","id":4},"quantity":2}]},{"provider":"PodPoint","provider_openid":3,"name":"J Leon Group","lat":51.55621,"lng":-0.177122,"postcode":"NW3 1QW","source":{"name":"OpenChargeMap","url":"http:\/\/openchargemap.org\/site\/poi\/details\/73198"},"connectors":[{"power":22,"status":"online","type":{"title":"AC (socket)","id":4},"quantity":1}]},{"provider":"PodPoint","provider_openid":3,"name":"Cheshire Datasystems Ltd","lat":53.408118,"lng":-2.178636,"postcode":"SK4 2HD","source":{"name":"OpenChargeMap","url":"http:\/\/openchargemap.org\/site\/poi\/details\/73180"},"connectors":[{"power":22,"status":"online","type":{"title":"AC (socket)","id":4},"quantity":2}]},{"provider":"PodPoint","provider_openid":3,"name":"University of Bath (Estates)","lat":51.381257,"lng":-2.32833,"postcode":"BA2 7AY","source":{"name":"OpenChargeMap","url":"http:\/\/openchargemap.org\/site\/poi\/details\/73174"},"connectors":[{"power":22,"status":"online","type":{"title":"AC (socket)","id":4},"quantity":2}]},{"provider":"PodPoint","provider_openid":3,"name":"Nestl\u00e9-Gatwick","lat":51.145341,"lng":-0.162848,"postcode":"RH6 0PA","source":{"name":"OpenChargeMap","url":"http:\/\/openchargemap.org\/site\/poi\/details\/72084"},"connectors":[{"power":22,"status":"online","type":{"title":"AC (socket)","id":4},"quantity":8}]},{"provider":"PodPoint","provider_openid":3,"name":"Solarplicity Head Office","lat":51.805763,"lng":-0.024247,"postcode":"SG12 9QL","source":{"name":"OpenChargeMap","url":"http:\/\/openchargemap.org\/site\/poi\/details\/71938"},"connectors":[{"power":22,"status":"online","type":{"title":"AC (socket)","id":4},"quantity":1}]},{"provider":"PodPoint","provider_openid":3,"name":"Midcounties Co-Operative-Warwick","lat":52.276773,"lng":-1.567819,"postcode":"CV34 6DA","source":{"name":"OpenChargeMap","url":"http:\/\/openchargemap.org\/site\/poi\/details\/71830"},"connectors":[{"power":22,"status":"online","type":{"title":"AC (socket)","id":4},"quantity":4}]},{"provider":"PodPoint","provider_openid":3,"name":"Combined Independent Holdings Ltd","lat":51.213413,"lng":-1.519761,"postcode":"SP10 3GD","source":{"name":"OpenChargeMap","url":"http:\/\/openchargemap.org\/site\/poi\/details\/71776"},"connectors":[{"power":22,"status":"online","type":{"title":"AC (socket)","id":4},"quantity":2}]},{"provider":"PodPoint","provider_openid":3,"name":"Cobweb Solutions","lat":50.847904,"lng":-1.166481,"postcode":"PO16 8UX","source":{"name":"OpenChargeMap","url":"http:\/\/openchargemap.org\/site\/poi\/details\/71077"},"connectors":[{"power":22,"status":"online","type":{"title":"AC (socket)","id":4},"quantity":2}]},{"provider":"PodPoint","provider_openid":3,"name":"Paxton Access Ltd-Brighton","lat":50.848853,"lng":-0.11641,"postcode":"BN1 9HU","source":{"name":"OpenChargeMap","url":"http:\/\/openchargemap.org\/site\/poi\/details\/70702"},"connectors":[{"power":22,"status":"online","type":{"title":"AC (socket)","id":4},"quantity":2}]},{"provider":"PodPoint","provider_openid":3,"name":"UTC Aerospace Systems","lat":52.631131,"lng":-2.125983,"postcode":"WV10 7EH","source":{"name":"OpenChargeMap","url":"http:\/\/openchargemap.org\/site\/poi\/details\/70668"},"connectors":[{"power":22,"status":"online","type":{"title":"AC (socket)","id":4},"quantity":1}]},{"provider":"PodPoint","provider_openid":3,"name":"Paxton Access Ltd-Eastbourne","lat":50.795682,"lng":0.280664,"postcode":"BN22 9BN","source":{"name":"OpenChargeMap","url":"http:\/\/openchargemap.org\/site\/poi\/details\/70657"},"connectors":[{"power":22,"status":"online","type":{"title":"AC (socket)","id":4},"quantity":2}]},{"provider":"PodPoint","provider_openid":3,"name":"CGG","lat":51.127079,"lng":-0.182565,"postcode":"RH10 9QN","source":{"name":"OpenChargeMap","url":"http:\/\/openchargemap.org\/site\/poi\/details\/70354"},"connectors":[{"power":22,"status":"online","type":{"title":"AC (socket)","id":4},"quantity":2}]},{"provider":"PodPoint","provider_openid":3,"name":"AB Graphic International Ltd","lat":54.064444,"lng":-0.243203,"postcode":"YO15 3QY","source":{"name":"OpenChargeMap","url":"http:\/\/openchargemap.org\/site\/poi\/details\/70130"},"connectors":[{"power":22,"status":"online","type":{"title":"AC (socket)","id":4},"quantity":4}]},{"provider":"PodPoint","provider_openid":3,"name":"Union Motion Ltd","lat":50.842316007819,"lng":-0.12096762657165,"postcode":"BN2 4GL","source":{"name":"OpenChargeMap","url":"http:\/\/openchargemap.org\/site\/poi\/details\/68683"},"connectors":[{"power":22,"status":"online","type":{"title":"AC (socket)","id":4},"quantity":1}]},{"provider":"PodPoint","provider_openid":3,"name":"The Co-Operative Food, Chipping Norton","lat":51.941014,"lng":-1.544558,"postcode":"OX7 5AB","source":{"name":"OpenChargeMap","url":"http:\/\/openchargemap.org\/site\/poi\/details\/64985"},"connectors":[{"power":22,"status":"online","type":{"title":"AC (socket)","id":4},"quantity":1}]},{"provider":"PodPoint","provider_openid":3,"name":"Britplas","lat":53.407578,"lng":-2.5358086,"postcode":"WA1 4RW","source":{"name":"OpenChargeMap","url":"http:\/\/openchargemap.org\/site\/poi\/details\/64819"},"connectors":[{"power":22,"status":"online","type":{"title":"AC (socket)","id":4},"quantity":3}]},{"provider":"PodPoint","provider_openid":3,"name":"TDL Event Services","lat":53.2530834,"lng":-4.3072753,"postcode":"LL77 7AW","source":{"name":"OpenChargeMap","url":"http:\/\/openchargemap.org\/site\/poi\/details\/64808"},"connectors":[{"power":22,"status":"online","type":{"title":"AC (socket)","id":4},"quantity":1}]},{"provider":"PodPoint","provider_openid":3,"name":"Lincolnshire City Council Offices","lat":53.2304777,"lng":-0.54546679999999,"postcode":"LN1 1YL","source":{"name":"OpenChargeMap","url":"http:\/\/openchargemap.org\/site\/poi\/details\/64805"},"connectors":[{"power":22,"status":"online","type":{"title":"AC (socket)","id":4},"quantity":2}]},{"provider":"PodPoint","provider_openid":3,"name":"Oosha Ltd","lat":52.6367029,"lng":-2.1210894,"postcode":"WV10 6TA","source":{"name":"OpenChargeMap","url":"http:\/\/openchargemap.org\/site\/poi\/details\/64791"},"connectors":[{"power":22,"status":"online","type":{"title":"AC (socket)","id":4},"quantity":2}]},{"provider":"PodPoint","provider_openid":3,"name":"Horiba-Mira Ltd","lat":52.5538046,"lng":-1.4668379,"postcode":"CV10 0TU","source":{"name":"OpenChargeMap","url":"http:\/\/openchargemap.org\/site\/poi\/details\/64588"},"connectors":[{"power":22,"status":"online","type":{"title":"AC (socket)","id":4},"quantity":5}]},{"provider":"PodPoint","provider_openid":3,"name":"Cygnet Group","lat":53.2753004,"lng":-2.484061,"postcode":"CW9 6GG","source":{"name":"OpenChargeMap","url":"http:\/\/openchargemap.org\/site\/poi\/details\/61308"},"connectors":[{"power":22,"status":"online","type":{"title":"AC (socket)","id":4},"quantity":2}]},{"provider":"PodPoint","provider_openid":3,"name":"BirchenallHowden Ltd","lat":53.374743,"lng":-1.4683503,"postcode":"S1 4SQ","source":{"name":"OpenChargeMap","url":"http:\/\/openchargemap.org\/site\/poi\/details\/61299"},"connectors":[{"power":22,"status":"online","type":{"title":"AC (socket)","id":4},"quantity":2}]},{"provider":"PodPoint","provider_openid":3,"name":"SWS UK","lat":54.0914638,"lng":-2.6693858999999,"postcode":"LA2 9LA","source":{"name":"OpenChargeMap","url":"http:\/\/openchargemap.org\/site\/poi\/details\/61268"},"connectors":[{"power":22,"status":"online","type":{"title":"AC (socket)","id":4},"quantity":2}]},{"provider":"PodPoint","provider_openid":3,"name":"Midland House","lat":50.368812,"lng":-4.1421542,"postcode":"PL1 2EJ","source":{"name":"OpenChargeMap","url":"http:\/\/openchargemap.org\/site\/poi\/details\/60851"},"connectors":[{"power":22,"status":"online","type":{"title":"AC (socket)","id":4},"quantity":2}]},{"provider":"PodPoint","provider_openid":3,"name":"Loades Ecoparc","lat":52.461917511241,"lng":-1.480073933838,"postcode":"CV7 9FW","source":{"name":"OpenChargeMap","url":"http:\/\/openchargemap.org\/site\/poi\/details\/60508"},"connectors":[{"power":22,"status":"online","type":{"title":"AC (socket)","id":4},"quantity":1}]},{"provider":"PodPoint","provider_openid":3,"name":"Caistor Multi-Use","lat":53.4966129,"lng":-0.31447149999997,"postcode":"LN7 6UB","source":{"name":"OpenChargeMap","url":"http:\/\/openchargemap.org\/site\/poi\/details\/60502"},"connectors":[{"power":22,"status":"online","type":{"title":"AC (socket)","id":4},"quantity":1}]},{"provider":"PodPoint","provider_openid":3,"name":"Stormsaver","lat":53.1191428,"lng":-0.94294760000002,"postcode":"NG22 8PD","source":{"name":"OpenChargeMap","url":"http:\/\/openchargemap.org\/site\/poi\/details\/60484"},"connectors":[{"power":22,"status":"online","type":{"title":"AC (socket)","id":4},"quantity":1}]},{"provider":"PodPoint","provider_openid":3,"name":"Minerva House","lat":52.8103983,"lng":0.01672480000002,"postcode":"PE12 7PT","source":{"name":"OpenChargeMap","url":"http:\/\/openchargemap.org\/site\/poi\/details\/60479"},"connectors":[{"power":22,"status":"online","type":{"title":"AC (socket)","id":4},"quantity":1}]},{"provider":"PodPoint","provider_openid":3,"name":"Minerva House","lat":52.8103983,"lng":0.01672480000002,"postcode":"PE12 7PT","source":{"name":"OpenChargeMap","url":"http:\/\/openchargemap.org\/site\/poi\/details\/60479"},"connectors":[{"power":22,"status":"online","type":{"title":"AC (socket)","id":4},"quantity":1}]},{"provider":"PodPoint","provider_openid":3,"name":"Britvic HQ","lat":51.755619,"lng":-0.425901,"postcode":"HP2 4TZ","source":{"name":"OpenChargeMap","url":"http:\/\/openchargemap.org\/site\/poi\/details\/60472"},"connectors":[{"power":22,"status":"online","type":{"title":"AC (socket)","id":4},"quantity":2}]},{"provider":"PodPoint","provider_openid":3,"name":"Whyteleafe Railway Station","lat":51.309559,"lng":-0.081128,"postcode":"CR3 0AD","source":{"name":"OpenChargeMap","url":"http:\/\/openchargemap.org\/site\/poi\/details\/60464"},"connectors":[{"power":22,"status":"online","type":{"title":"AC (socket)","id":4},"quantity":2}]},{"provider":"PodPoint","provider_openid":3,"name":"Energy Coast UTC","lat":54.614684,"lng":-3.522703,"postcode":"CA14 4JW","source":{"name":"OpenChargeMap","url":"http:\/\/openchargemap.org\/site\/poi\/details\/60462"},"connectors":[{"power":22,"status":"online","type":{"title":"AC (socket)","id":4},"quantity":2}]},{"provider":"PodPoint","provider_openid":3,"name":"Copyrite Business Solutions","lat":50.7948282,"lng":-1.9759557,"postcode":"BH21 1QU","source":{"name":"OpenChargeMap","url":"http:\/\/openchargemap.org\/site\/poi\/details\/60460"},"connectors":[{"power":22,"status":"online","type":{"title":"AC (socket)","id":4},"quantity":1}]},{"provider":"PodPoint","provider_openid":3,"name":"The Watermill Press Ltd","lat":53.782883,"lng":-1.749641,"postcode":"BD5 7SG","source":{"name":"OpenChargeMap","url":"http:\/\/openchargemap.org\/site\/poi\/details\/60459"},"connectors":[{"power":22,"status":"online","type":{"title":"AC (socket)","id":4},"quantity":4}]},{"provider":"PodPoint","provider_openid":3,"name":"J & K Ross","lat":53.3999501,"lng":-2.596959,"postcode":"WA2 8NU","source":{"name":"OpenChargeMap","url":"http:\/\/openchargemap.org\/site\/poi\/details\/60385"},"connectors":[{"power":22,"status":"online","type":{"title":"AC (socket)","id":4},"quantity":1}]},{"provider":"PodPoint","provider_openid":3,"name":"Ventcroft Ltd","lat":53.3443304,"lng":-2.7086401,"postcode":"WA7 1PE","source":{"name":"OpenChargeMap","url":"http:\/\/openchargemap.org\/site\/poi\/details\/60382"},"connectors":[{"power":22,"status":"online","type":{"title":"AC (socket)","id":4},"quantity":1}]},{"provider":"PodPoint","provider_openid":3,"name":"Kakushin Ltd","lat":51.474029869198,"lng":-0.20106517182773,"postcode":"SW6 4TW","source":{"name":"OpenChargeMap","url":"http:\/\/openchargemap.org\/site\/poi\/details\/60337"},"connectors":[{"power":22,"status":"online","type":{"title":"AC (socket)","id":4},"quantity":1}]},{"provider":"PodPoint","provider_openid":3,"name":"SGS Tool Europe Ltd","lat":51.4067274,"lng":-0.84447079999995,"postcode":"RG41 2PL","source":{"name":"OpenChargeMap","url":"http:\/\/openchargemap.org\/site\/poi\/details\/60295"},"connectors":[{"power":22,"status":"online","type":{"title":"AC (socket)","id":4},"quantity":1}]},{"provider":"PodPoint","provider_openid":3,"name":"Midcounties Co-Operative","lat":52.5871602,"lng":-1.9811416,"postcode":"WS1 1JH","source":{"name":"OpenChargeMap","url":"http:\/\/openchargemap.org\/site\/poi\/details\/60289"},"connectors":[{"power":22,"status":"online","type":{"title":"AC (socket)","id":4},"quantity":1}]},{"provider":"PodPoint","provider_openid":3,"name":"National Trust-Sheringham Park","lat":52.924783,"lng":1.1803,"postcode":"NR26 8TL","source":{"name":"OpenChargeMap","url":"http:\/\/openchargemap.org\/site\/poi\/details\/60283"},"connectors":[{"power":22,"status":"online","type":{"title":"AC (socket)","id":4},"quantity":2}]},{"provider":"PodPoint","provider_openid":3,"name":"National Trust-Sheringham Park","lat":52.924783,"lng":1.1803,"postcode":"NR26 8TL","source":{"name":"OpenChargeMap","url":"http:\/\/openchargemap.org\/site\/poi\/details\/60283"},"connectors":[{"power":22,"status":"online","type":{"title":"AC (socket)","id":4},"quantity":2}]},{"provider":"PodPoint","provider_openid":3,"name":"Aura Skegness Business Centre","lat":53.1414458,"lng":0.32130419999999,"postcode":"PE25 3SJ","source":{"name":"OpenChargeMap","url":"http:\/\/openchargemap.org\/site\/poi\/details\/59043"},"connectors":[{"power":22,"status":"online","type":{"title":"AC (socket)","id":4},"quantity":2}]},{"provider":"PodPoint","provider_openid":3,"name":"Fibre Technologies","lat":51.3661044,"lng":-0.8173932,"postcode":"RG45 6LS","source":{"name":"OpenChargeMap","url":"http:\/\/openchargemap.org\/site\/poi\/details\/55111"},"connectors":[{"power":22,"status":"online","type":{"title":"AC (socket)","id":4},"quantity":2}]},{"provider":"PodPoint","provider_openid":3,"name":"POD Point Office","lat":51.524491,"lng":-0.092208,"postcode":"EC1Y 8QE","source":{"name":"OpenChargeMap","url":"http:\/\/openchargemap.org\/site\/poi\/details\/55085"},"connectors":[{"power":22,"status":"online","type":{"title":"AC (socket)","id":4},"quantity":9}]},{"provider":"PodPoint","provider_openid":3,"name":"Cottons Hotel & Spa","lat":53.319598,"lng":-2.392596,"postcode":"WA16 0SU","source":{"name":"OpenChargeMap","url":"http:\/\/openchargemap.org\/site\/poi\/details\/54518"},"connectors":[{"power":22,"status":"online","type":{"title":"AC (socket)","id":4},"quantity":1}]},{"provider":"PodPoint","provider_openid":3,"name":"Exeter Civic Centre","lat":50.724654,"lng":-3.524302,"postcode":"EX1 1JN","source":{"name":"OpenChargeMap","url":"http:\/\/openchargemap.org\/site\/poi\/details\/53074"},"connectors":[{"power":22,"status":"online","type":{"title":"AC (socket)","id":4},"quantity":2}]},{"provider":"PodPoint","provider_openid":3,"name":"Mount Gould Hospital","lat":50.378475,"lng":-4.112073,"postcode":"PL4 7QD","source":{"name":"OpenChargeMap","url":"http:\/\/openchargemap.org\/site\/poi\/details\/48477"},"connectors":[{"power":22,"status":"online","type":{"title":"AC (socket)","id":4},"quantity":2}]},{"provider":"PodPoint","provider_openid":3,"name":"Western Approach Car Park","lat":50.370681438355,"lng":-4.1493499834534,"postcode":"PL1 1AJ","source":{"name":"OpenChargeMap","url":"http:\/\/openchargemap.org\/site\/poi\/details\/41896"},"connectors":[{"power":22,"status":"online","type":{"title":"AC (socket)","id":4},"quantity":4}]},{"provider":"PodPoint","provider_openid":3,"name":"Sainsbury's Pinhoe Road","lat":50.733082950439,"lng":-3.4791750179687,"postcode":"EX1 3PF","source":{"name":"OpenChargeMap","url":"http:\/\/openchargemap.org\/site\/poi\/details\/41891"},"connectors":[{"power":22,"status":"online","type":{"title":"AC (tethered)","id":3},"quantity":6}]},{"provider":"PodPoint","provider_openid":3,"name":"Magdalen Street Car Park","lat":50.719857056367,"lng":-3.5281348228455,"postcode":"EX2 4HZ","source":{"name":"OpenChargeMap","url":"http:\/\/openchargemap.org\/site\/poi\/details\/24366"},"connectors":[{"power":22,"status":"online","type":{"title":"AC (socket)","id":4},"quantity":2}]},{"provider":"PodPoint","provider_openid":3,"name":" Evans Halshaw Nissan Sunderland","lat":54.9191622,"lng":-1.4287750999999,"postcode":"SR5 3RL","source":{"name":"OpenChargeMap","url":"http:\/\/openchargemap.org\/site\/poi\/details\/19063"},"connectors":[{"power":50,"status":"online","type":{"title":"CHAdeMO","id":1},"quantity":1}]},{"provider":"PodPoint","provider_openid":3,"name":"Wessex Garages Cardiff","lat":51.4665486,"lng":-3.2017036,"postcode":"CF11 8AQ","source":{"name":"OpenChargeMap","url":"http:\/\/openchargemap.org\/site\/poi\/details\/9814"},"connectors":[{"power":50,"status":"online","type":{"title":"CHAdeMO","id":1},"quantity":1}]},{"provider":"PodPoint","provider_openid":3,"name":"Wessex Garages Cardiff","lat":51.4665486,"lng":-3.2017036,"postcode":"CF11 8AQ","source":{"name":"OpenChargeMap","url":"http:\/\/openchargemap.org\/site\/poi\/details\/9814"},"connectors":[{"power":50,"status":"online","type":{"title":"CHAdeMO","id":1},"quantity":1}]},{"provider":"PodPoint","provider_openid":3,"name":"West Way Nissan Aldershot","lat":51.2484904,"lng":-0.7586864,"postcode":"GU11 1JG","source":{"name":"OpenChargeMap","url":"http:\/\/openchargemap.org\/site\/poi\/details\/5753"},"connectors":[{"power":50,"status":"online","type":{"title":"CHAdeMO","id":1},"quantity":1}]},{"provider":"PodPoint","provider_openid":3,"name":"West Way Southampton","lat":50.9216348,"lng":-1.4715916,"postcode":"SO15 0NP","source":{"name":"OpenChargeMap","url":"http:\/\/openchargemap.org\/site\/poi\/details\/5738"},"connectors":[{"power":50,"status":"online","type":{"title":"CHAdeMO","id":1},"quantity":1}]},{"provider":"PodPoint","provider_openid":3,"name":"JFE Nissan","lat":50.70462,"lng":-3.5318831,"postcode":"EX2 8PU","source":{"name":"OpenChargeMap","url":"http:\/\/openchargemap.org\/site\/poi\/details\/5453"},"connectors":[{"power":50,"status":"online","type":{"title":"CHAdeMO","id":1},"quantity":1}]},{"provider":"PodPoint","provider_openid":3,"name":"Motorline Tunbridge Wells","lat":51.1551669,"lng":0.284541,"postcode":"TN2 3UY","source":{"name":"OpenChargeMap","url":"http:\/\/openchargemap.org\/site\/poi\/details\/5472"},"connectors":[{"power":50,"status":"online","type":{"title":"CHAdeMO","id":1},"quantity":1}]},{"provider":"PodPoint","provider_openid":3,"name":"Ancaster Nissan (Penge)","lat":51.4111728,"lng":-0.0553689,"postcode":"SE20 7TF","source":{"name":"OpenChargeMap","url":"http:\/\/openchargemap.org\/site\/poi\/details\/5493"},"connectors":[{"power":50,"status":"unknown","type":{"title":"CHAdeMO","id":1},"quantity":1}]},{"provider":"PodPoint","provider_openid":3,"name":"Alex F Noble & Sons Nissan","lat":55.875053,"lng":-3.173333,"postcode":"EH20 9FB","source":{"name":"OpenChargeMap","url":"http:\/\/openchargemap.org\/site\/poi\/details\/4123"},"connectors":[{"power":50,"status":"online","type":{"title":"CHAdeMO","id":1},"quantity":1}]}]}