{"last_updated":"15 Dec 15:52","locations":[{"name":"London - The Royal Victoria Docks Supercharger","provider":"Tesla","lat":51.50778327,"lng":0.015614182,"postcode":"E16 1GB","source":{"name":"Tesla","url":"https:\/\/www.teslamotors.com\/en_GB\/findus\/"},"connections":[],"connectors":[{"power":120,"quantity":2,"status":"online","type":{"title":"Tesla SC","id":7}}]},{"name":"Birmingham Supercharger","provider":"Tesla","lat":52.4781892,"lng":-1.9087075,"postcode":"B1 2JZ","source":{"name":"Tesla","url":"https:\/\/www.teslamotors.com\/en_GB\/findus\/"},"connections":[],"connectors":[{"power":120,"quantity":2,"status":"online","type":{"title":"Tesla SC","id":7}}]},{"name":"London-Westfield","provider":"Tesla","lat":51.507888,"lng":-0.221972,"postcode":"W12 7GB","source":{"name":"Tesla","url":"https:\/\/www.teslamotors.com\/en_GB\/findus\/"},"connections":[],"connectors":[{"power":120,"quantity":8,"status":"online","type":{"title":"Tesla SC","id":7}}]},{"name":"London-Heathrow","provider":"Tesla","lat":51.5111657,"lng":-0.4612202,"postcode":"UB7 8JD","source":{"name":"Tesla","url":"https:\/\/www.teslamotors.com\/en_GB\/findus\/"},"connections":[],"connectors":[{"power":120,"quantity":5,"status":"online","type":{"title":"Tesla SC","id":7}}]},{"name":"London - Canary Wharf Supercharger","provider":"Tesla","lat":51.504351,"lng":-0.015692,"postcode":"E14 5EW","source":{"name":"Tesla","url":"https:\/\/www.teslamotors.com\/en_GB\/findus\/"},"connections":[],"connectors":[{"power":120,"quantity":4,"status":"online","type":{"title":"Tesla SC","id":7}}]},{"name":"Edinburgh Supercharger","provider":"Tesla","lat":55.9453606,"lng":-3.3666667,"postcode":"","source":{"name":"Tesla","url":"https:\/\/www.teslamotors.com\/en_GB\/findus\/"},"connections":[],"connectors":[{"power":120,"quantity":2,"status":"online","type":{"title":"Tesla SC","id":7}}]},{"name":"Reading Supercharger","provider":"Tesla","lat":51.420596,"lng":-0.988024,"postcode":"RG2 6UG","source":{"name":"Tesla","url":"https:\/\/www.teslamotors.com\/en_GB\/findus\/"},"connections":[],"connectors":[{"power":120,"quantity":4,"status":"online","type":{"title":"Tesla SC","id":7}}]},{"name":"London - Tower Supercharger","provider":"Tesla","lat":51.506341,"lng":-0.07277,"postcode":"E1W 1LD","source":{"name":"Tesla","url":"https:\/\/www.teslamotors.com\/en_GB\/findus\/"},"connections":[],"connectors":[{"power":120,"quantity":2,"status":"online","type":{"title":"Tesla SC","id":7}}]},{"name":"Bristol - Cribbs Causeway Supercharger","provider":"Tesla","lat":51.5266939,"lng":-2.5998056,"postcode":"BS34 5QU","source":{"name":"Tesla","url":"https:\/\/www.teslamotors.com\/en_GB\/findus\/"},"connections":[],"connectors":[{"power":120,"quantity":2,"status":"online","type":{"title":"Tesla SC","id":7}}]},{"name":"Warrington Supercharger","provider":"Tesla","lat":53.339515,"lng":-2.569358,"postcode":"WA4 4NS","source":{"name":"Tesla","url":"https:\/\/www.teslamotors.com\/en_GB\/findus\/"},"connections":[],"connectors":[{"power":120,"quantity":2,"status":"online","type":{"title":"Tesla SC","id":7}}]},{"name":"London - Heathrow Supercharger","provider":"Tesla","lat":51.484133,"lng":-0.452109,"postcode":"UB7 0DU","source":{"name":"Tesla","url":"https:\/\/www.teslamotors.com\/en_GB\/findus\/"},"connections":[],"connectors":[{"power":120,"quantity":2,"status":"online","type":{"title":"Tesla SC","id":7}}]},{"name":"Dartford Supercharger","provider":"Tesla","lat":51.438018,"lng":0.268845,"postcode":"DA9 9ST","source":{"name":"Tesla","url":"https:\/\/www.teslamotors.com\/en_GB\/findus\/"},"connections":[],"connectors":[{"power":120,"quantity":5,"status":"online","type":{"title":"Tesla SC","id":7}}]},{"name":"Maidstone Supercharger","provider":"Tesla","lat":51.286224,"lng":0.545783,"postcode":"ME14 3EN","source":{"name":"Tesla","url":"https:\/\/www.teslamotors.com\/en_GB\/findus\/"},"connections":[],"connectors":[{"power":120,"quantity":6,"status":"online","type":{"title":"Tesla SC","id":7}}]},{"name":"Exeter Supercharger","provider":"Tesla","lat":50.685442,"lng":-3.448837,"postcode":"EX3 0QH","source":{"name":"Tesla","url":"https:\/\/www.teslamotors.com\/en_GB\/findus\/"},"connections":[],"connectors":[{"power":120,"quantity":2,"status":"online","type":{"title":"Tesla SC","id":7}}]},{"name":"Northampton Supercharger","provider":"Tesla","lat":52.185729,"lng":-0.89127,"postcode":"NN4 5EZ","source":{"name":"Tesla","url":"https:\/\/www.teslamotors.com\/en_GB\/findus\/"},"connections":[],"connectors":[{"power":120,"quantity":6,"status":"online","type":{"title":"Tesla SC","id":7}}]},{"name":"Winchester - Norton Park Supercharger","provider":"Tesla","lat":51.16725,"lng":-1.328024,"postcode":"SO21 3NB","source":{"name":"Tesla","url":"https:\/\/www.teslamotors.com\/en_GB\/findus\/"},"connections":[],"connectors":[{"power":120,"quantity":2,"status":"online","type":{"title":"Tesla SC","id":7}}]},{"name":"Winchester - Badger Farm Supercharger","provider":"Tesla","lat":51.046123,"lng":-1.341865,"postcode":"SO22 4QB","source":{"name":"Tesla","url":"https:\/\/www.teslamotors.com\/en_GB\/findus\/"},"connections":[],"connectors":[{"power":120,"quantity":2,"status":"online","type":{"title":"Tesla SC","id":7}}]},{"name":"Leeds Supercharger","provider":"Tesla","lat":53.732774,"lng":-1.585622,"postcode":"LS27 0TS","source":{"name":"Tesla","url":"https:\/\/www.teslamotors.com\/en_GB\/findus\/"},"connections":[],"connectors":[{"power":120,"quantity":2,"status":"online","type":{"title":"Tesla SC","id":7}}]},{"name":"Barnsley Supercharger","provider":"Tesla","lat":53.489393,"lng":-1.486223,"postcode":"S75 3DQ","source":{"name":"Tesla","url":"https:\/\/www.teslamotors.com\/en_GB\/findus\/"},"connections":[],"connectors":[{"power":120,"quantity":2,"status":"online","type":{"title":"Tesla SC","id":7}}]},{"name":"South Mimms Supercharger","provider":"Tesla","lat":51.687091,"lng":-0.221844,"postcode":"EN6 3QQ","source":{"name":"Tesla","url":"https:\/\/www.teslamotors.com\/en_GB\/findus\/"},"connections":[],"connectors":[{"power":120,"quantity":2,"status":"online","type":{"title":"Tesla SC","id":7}}]},{"name":"Birmingham - Hopwood Park Supercharger","provider":"Tesla","lat":52.363227,"lng":-1.945595,"postcode":"B48 7AU","source":{"name":"Tesla","url":"https:\/\/www.teslamotors.com\/en_GB\/findus\/"},"connections":[],"connectors":[{"power":120,"quantity":6,"status":"online","type":{"title":"Tesla SC","id":7}}]},{"name":"Oxford Supercharger","provider":"Tesla","lat":51.737666,"lng":-1.095778,"postcode":"OX33 1LJ","source":{"name":"Tesla","url":"https:\/\/www.teslamotors.com\/en_GB\/findus\/"},"connections":[],"connectors":[{"power":120,"quantity":6,"status":"online","type":{"title":"Tesla SC","id":7}}]},{"name":"Gretna Green Supercharger","provider":"Tesla","lat":55.0078,"lng":-3.083018,"postcode":"DG16 5HQ","source":{"name":"Tesla","url":"https:\/\/www.teslamotors.com\/en_GB\/findus\/"},"connections":[],"connectors":[{"power":120,"quantity":4,"status":"online","type":{"title":"Tesla SC","id":7}}]},{"name":"Abington Supercharger","provider":"Tesla","lat":55.507062,"lng":-3.694858,"postcode":"ML12 6RG","source":{"name":"Tesla","url":"https:\/\/www.teslamotors.com\/en_GB\/findus\/"},"connections":[],"connectors":[{"power":120,"quantity":6,"status":"online","type":{"title":"Tesla SC","id":7}}]},{"name":"Birchanger Green Supercharger","provider":"Tesla","lat":51.871619,"lng":0.193886,"postcode":"CM23 5QZ","source":{"name":"Tesla","url":"https:\/\/www.teslamotors.com\/en_GB\/findus\/"},"connections":[],"connectors":[{"power":120,"quantity":4,"status":"online","type":{"title":"Tesla SC","id":7}}]},{"name":"Folkestone - Eurotunnel Terminal Supercharger","provider":"Tesla","lat":51.096752,"lng":1.121336,"postcode":"CT18 8XX","source":{"name":"Tesla","url":"https:\/\/www.teslamotors.com\/en_GB\/findus\/"},"connections":[],"connectors":[{"power":120,"quantity":4,"status":"online","type":{"title":"Tesla SC","id":7}}]},{"name":"Stoke-on-Trent Southbound Supercharger","provider":"Tesla","lat":52.994202,"lng":-2.290657,"postcode":"ST5 5HG","source":{"name":"Tesla","url":"https:\/\/www.teslamotors.com\/en_GB\/findus\/"},"connections":[],"connectors":[{"power":120,"quantity":4,"status":"online","type":{"title":"Tesla SC","id":7}}]},{"name":"Washington Supercharger","provider":"Tesla","lat":54.88762,"lng":-1.557413,"postcode":"NE37 1LB","source":{"name":"Tesla","url":"https:\/\/www.teslamotors.com\/en_GB\/findus\/"},"connections":[],"connectors":[{"power":120,"quantity":8,"status":"online","type":{"title":"Tesla SC","id":7}}]},{"name":"Gleneagles","provider":"Tesla","lat":56.283383,"lng":-3.75199,"postcode":"PH3 1NF","source":{"name":"Tesla","url":"https:\/\/www.teslamotors.com\/en_GB\/findus\/"},"connections":[],"connectors":[{"power":22,"quantity":1,"status":"online","type":{"title":"Tesla Dest.","id":7}}]},{"name":"TAG Farnborough Airport","provider":"Tesla","lat":51.283219,"lng":-0.776574,"postcode":"GU14 0LJ","source":{"name":"Tesla","url":"https:\/\/www.teslamotors.com\/en_GB\/findus\/"},"connections":[],"connectors":[{"power":22,"quantity":2,"status":"online","type":{"title":"Tesla Dest.","id":7}}]},{"name":"Stoke Park","provider":"Tesla","lat":51.535297,"lng":-0.605029,"postcode":"SL2 4PG","source":{"name":"Tesla","url":"https:\/\/www.teslamotors.com\/en_GB\/findus\/"},"connections":[],"connectors":[{"power":6,"quantity":2,"status":"online","type":{"title":"Tesla Dest.","id":7}}]},{"name":"The Old Piggery","provider":"Tesla","lat":52.810236,"lng":1.498429,"postcode":"NR12 9HS","source":{"name":"Tesla","url":"https:\/\/www.teslamotors.com\/en_GB\/findus\/"},"connections":[],"connectors":[{"power":22,"quantity":2,"status":"online","type":{"title":"Tesla Dest.","id":7}}]},{"name":"Pentillie Castle","provider":"Tesla","lat":50.459196,"lng":-4.241483,"postcode":"PL12 6QD","source":{"name":"Tesla","url":"https:\/\/www.teslamotors.com\/en_GB\/findus\/"},"connections":[],"connectors":[{"power":22,"quantity":2,"status":"online","type":{"title":"Tesla Dest.","id":7}}]},{"name":"Huntstile Organic Farm","provider":"Tesla","lat":51.098375,"lng":-3.049415,"postcode":"TA5 2DQ","source":{"name":"Tesla","url":"https:\/\/www.teslamotors.com\/en_GB\/findus\/"},"connections":[],"connectors":[{"power":11,"quantity":1,"status":"online","type":{"title":"Tesla Dest.","id":7}}]},{"name":"Linthwaite House Hotel","provider":"Tesla","lat":54.352693,"lng":-2.912637,"postcode":"LA23 3JA","source":{"name":"Tesla","url":"https:\/\/www.teslamotors.com\/en_GB\/findus\/"},"connections":[],"connectors":[{"power":22,"quantity":2,"status":"online","type":{"title":"Tesla Dest.","id":7}}]},{"name":"Bryn Elltyd  Eco Guesthouse","provider":"Tesla","lat":52.984863,"lng":-3.966485,"postcode":"LL41 3TW","source":{"name":"Tesla","url":"https:\/\/www.teslamotors.com\/en_GB\/findus\/"},"connections":[],"connectors":[{"power":7,"quantity":1,"status":"online","type":{"title":"Tesla Dest.","id":7}}]},{"name":"Brimstone Hotel","provider":"Tesla","lat":54.437159,"lng":-3.039814,"postcode":"LA22 9JD","source":{"name":"Tesla","url":"https:\/\/www.teslamotors.com\/en_GB\/findus\/"},"connections":[],"connectors":[{"power":11,"quantity":1,"status":"online","type":{"title":"Tesla Dest.","id":7}}]},{"name":"Imperial Hotel","provider":"Tesla","lat":52.613105,"lng":1.737679,"postcode":"NR30 1EQ","source":{"name":"Tesla","url":"https:\/\/www.teslamotors.com\/en_GB\/findus\/"},"connections":[],"connectors":[{"power":11,"quantity":2,"status":"online","type":{"title":"Tesla Dest.","id":7}}]},{"name":"The Scarlet Hotel","provider":"Tesla","lat":50.468163,"lng":-5.02977,"postcode":"TR8 4DQ","source":{"name":"Tesla","url":"https:\/\/www.teslamotors.com\/en_GB\/findus\/"},"connections":[],"connectors":[{"power":22,"quantity":2,"status":"online","type":{"title":"Tesla Dest.","id":7}}]},{"name":"The Bedruthan Hotel & Spa","provider":"Tesla","lat":50.469472,"lng":-5.028714,"postcode":"TR8 4BU","source":{"name":"Tesla","url":"https:\/\/www.teslamotors.com\/en_GB\/findus\/"},"connections":[],"connectors":[{"power":22,"quantity":4,"status":"online","type":{"title":"Tesla Dest.","id":7}}]},{"name":"Ashdown Park Hotel & Country Club","provider":"Tesla","lat":51.070971,"lng":0.041044,"postcode":"RH18 5JR","source":{"name":"Tesla","url":"https:\/\/www.teslamotors.com\/en_GB\/findus\/"},"connections":[],"connectors":[{"power":11,"quantity":1,"status":"online","type":{"title":"Tesla Dest.","id":7}}]},{"name":"The Torridon","provider":"Tesla","lat":57.528688,"lng":-5.528182,"postcode":"IV22 2EY","source":{"name":"Tesla","url":"https:\/\/www.teslamotors.com\/en_GB\/findus\/"},"connections":[],"connectors":[{"power":6,"quantity":2,"status":"online","type":{"title":"Tesla Dest.","id":7}}]},{"name":"Rudding Park Hotel","provider":"Tesla","lat":53.973773,"lng":-1.492644,"postcode":"HG3 1JH","source":{"name":"Tesla","url":"https:\/\/www.teslamotors.com\/en_GB\/findus\/"},"connections":[],"connectors":[{"power":22,"quantity":1,"status":"online","type":{"title":"Tesla Dest.","id":7}}]},{"name":"Luton Hoo Hotel Golf and Spa","provider":"Tesla","lat":51.854446,"lng":-0.39796,"postcode":"LU1 3TQ","source":{"name":"Tesla","url":"https:\/\/www.teslamotors.com\/en_GB\/findus\/"},"connections":[],"connectors":[{"power":6,"quantity":1,"status":"online","type":{"title":"Tesla Dest.","id":7}}]},{"name":"L'Ortolan Restaurant","provider":"Tesla","lat":51.40864,"lng":-0.954065,"postcode":"RG2 9BY","source":{"name":"Tesla","url":"https:\/\/www.teslamotors.com\/en_GB\/findus\/"},"connections":[],"connectors":[{"power":22,"quantity":1,"status":"online","type":{"title":"Tesla Dest.","id":7}}]},{"name":"Harrods","provider":"Tesla","lat":51.499395,"lng":-0.163234,"postcode":"SW3 1BB","source":{"name":"Tesla","url":"https:\/\/www.teslamotors.com\/en_GB\/findus\/"},"connections":[],"connectors":[{"power":22,"quantity":2,"status":"online","type":{"title":"Tesla Dest.","id":7}}]},{"name":"Q-Park Tower Bridge","provider":"Tesla","lat":51.502367,"lng":-0.073739,"postcode":"SE1 2NE","source":{"name":"Tesla","url":"https:\/\/www.teslamotors.com\/en_GB\/findus\/"},"connections":[],"connectors":[{"power":22,"quantity":2,"status":"online","type":{"title":"Tesla Dest.","id":7}}]},{"name":"Q-Park Oxford Street","provider":"Tesla","lat":51.516593,"lng":-0.144297,"postcode":"W1G 0PN","source":{"name":"Tesla","url":"https:\/\/www.teslamotors.com\/en_GB\/findus\/"},"connections":[],"connectors":[{"power":12,"quantity":2,"status":"online","type":{"title":"Tesla Dest.","id":7}}]},{"name":"Q-Park Harley Street","provider":"Tesla","lat":51.517933,"lng":-0.145537,"postcode":"W1G 9HF","source":{"name":"Tesla","url":"https:\/\/www.teslamotors.com\/en_GB\/findus\/"},"connections":[],"connectors":[{"power":22,"quantity":2,"status":"online","type":{"title":"Tesla Dest.","id":7}}]},{"name":"Cobb Quay Marina","provider":"Tesla","lat":50.721772,"lng":-2.003477,"postcode":"BH15 4EL","source":{"name":"Tesla","url":"https:\/\/www.teslamotors.com\/en_GB\/findus\/"},"connections":[],"connectors":[{"power":11,"quantity":1,"status":"online","type":{"title":"Tesla Dest.","id":7}}]},{"name":"Hamble Point Marina","provider":"Tesla","lat":50.855836,"lng":-1.316898,"postcode":"SO31 4NB","source":{"name":"Tesla","url":"https:\/\/www.teslamotors.com\/en_GB\/findus\/"},"connections":[],"connectors":[{"power":11,"quantity":1,"status":"online","type":{"title":"Tesla Dest.","id":7}}]},{"name":"Ocean Village Marina","provider":"Tesla","lat":50.896945,"lng":-1.388259,"postcode":"SO14 3TG","source":{"name":"Tesla","url":"https:\/\/www.teslamotors.com\/en_GB\/findus\/"},"connections":[],"connectors":[{"power":11,"quantity":1,"status":"online","type":{"title":"Tesla Dest.","id":7}}]},{"name":"The Royal Oak Hotel Restaurant and Pub","provider":"Tesla","lat":51.466953,"lng":-1.206437,"postcode":"RG18 0UG","source":{"name":"Tesla","url":"https:\/\/www.teslamotors.com\/en_GB\/findus\/"},"connections":[],"connectors":[{"power":11,"quantity":1,"status":"online","type":{"title":"Tesla Dest.","id":7}}]},{"name":"The Gonville Hotel","provider":"Tesla","lat":52.199851,"lng":0.128561,"postcode":"CB1 1LY","source":{"name":"Tesla","url":"https:\/\/www.teslamotors.com\/en_GB\/findus\/"},"connections":[],"connectors":[{"power":11,"quantity":1,"status":"online","type":{"title":"Tesla Dest.","id":7}}]},{"name":"Langaller Manor House","provider":"Tesla","lat":51.036076,"lng":-3.044447,"postcode":"TA2 8DA","source":{"name":"Tesla","url":"https:\/\/www.teslamotors.com\/en_GB\/findus\/"},"connections":[],"connectors":[{"power":13,"quantity":2,"status":"online","type":{"title":"Tesla Dest.","id":7}}]},{"name":"Penderyn Distillery","provider":"Tesla","lat":51.763688,"lng":-3.52129,"postcode":"CF44 0SX","source":{"name":"Tesla","url":"https:\/\/www.teslamotors.com\/en_GB\/findus\/"},"connections":[],"connectors":[{"power":22,"quantity":2,"status":"online","type":{"title":"Tesla Dest.","id":7}}]},{"name":"Tewkesbury Park","provider":"Tesla","lat":51.979296,"lng":-2.171702,"postcode":"GL20 7DN","source":{"name":"Tesla","url":"https:\/\/www.teslamotors.com\/en_GB\/findus\/"},"connections":[],"connectors":[{"power":22,"quantity":2,"status":"online","type":{"title":"Tesla Dest.","id":7}}]},{"name":"The Samling Hotel","provider":"Tesla","lat":54.414629,"lng":-2.950827,"postcode":"LA23 1LR","source":{"name":"Tesla","url":"https:\/\/www.teslamotors.com\/en_GB\/findus\/"},"connections":[],"connectors":[{"power":11,"quantity":2,"status":"online","type":{"title":"Tesla Dest.","id":7}}]},{"name":"Bristol - Gordano Supercharger","provider":"Tesla","lat":51.477207,"lng":-2.706308,"postcode":"BS20 7XG","source":{"name":"Tesla","url":"https:\/\/www.teslamotors.com\/en_GB\/findus\/"},"connections":[],"connectors":[{"power":120,"quantity":8,"status":"online","type":{"title":"Tesla SC","id":7}}]},{"name":"London-Brent Cross Supercharger","provider":"Tesla","lat":51.57753,"lng":-0.223753,"postcode":"NW4 3FP","source":{"name":"Tesla","url":"https:\/\/www.teslamotors.com\/en_GB\/findus\/"},"connections":[],"connectors":[{"power":120,"quantity":2,"status":"online","type":{"title":"Tesla SC","id":7}}]},{"name":"Pendragon Country House","provider":"Tesla","lat":50.652631,"lng":-4.628714,"postcode":"PL32 9XR","source":{"name":"Tesla","url":"https:\/\/www.teslamotors.com\/en_GB\/findus\/"},"connections":[],"connectors":[{"power":7,"quantity":1,"status":"online","type":{"title":"Tesla Dest.","id":7}}]},{"name":"The Wild Boar Inn","provider":"Tesla","lat":54.350961,"lng":-2.870612,"postcode":"LA23 3NF","source":{"name":"Tesla","url":"https:\/\/www.teslamotors.com\/en_GB\/findus\/"},"connections":[],"connectors":[{"power":7,"quantity":1,"status":"online","type":{"title":"Tesla Dest.","id":7}}]},{"name":"Glyndebourne Opera","provider":"Tesla","lat":50.878292,"lng":0.064169,"postcode":"BN8 5UU","source":{"name":"Tesla","url":"https:\/\/www.teslamotors.com\/en_GB\/findus\/"},"connections":[],"connectors":[{"power":22,"quantity":1,"status":"online","type":{"title":"Tesla Dest.","id":7}}]},{"name":"Diggerland","provider":"Tesla","lat":51.38258,"lng":0.478702,"postcode":"ME2 2NU","source":{"name":"Tesla","url":"https:\/\/www.teslamotors.com\/en_GB\/findus\/"},"connections":[],"connectors":[{"power":11,"quantity":1,"status":"online","type":{"title":"Tesla Dest.","id":7}}]},{"name":"The Old Rectory","provider":"Tesla","lat":50.693404,"lng":-4.657036,"postcode":"PL35 0BT","source":{"name":"Tesla","url":"https:\/\/www.teslamotors.com\/en_GB\/findus\/"},"connections":[],"connectors":[{"power":7,"quantity":1,"status":"online","type":{"title":"Tesla Dest.","id":7}}]},{"name":"Parc-y-Scarlets","provider":"Tesla","lat":51.678578,"lng":-4.127873,"postcode":"SA14 9UZ","source":{"name":"Tesla","url":"https:\/\/www.teslamotors.com\/en_GB\/findus\/"},"connections":[],"connectors":[{"power":11,"quantity":2,"status":"online","type":{"title":"Tesla Dest.","id":7}}]},{"name":"Trenderway Farm B&B and Wedding Venue","provider":"Tesla","lat":50.351933,"lng":-4.512193,"postcode":"PL13 2LY","source":{"name":"Tesla","url":"https:\/\/www.teslamotors.com\/en_GB\/findus\/"},"connections":[],"connectors":[{"power":22,"quantity":2,"status":"online","type":{"title":"Tesla Dest.","id":7}}]},{"name":"Thetford Supercharger","provider":"Tesla","lat":52.38641,"lng":0.664606,"postcode":"IP24 3TP","source":{"name":"Tesla","url":"https:\/\/www.teslamotors.com\/en_GB\/findus\/"},"connections":[],"connectors":[{"power":120,"quantity":8,"status":"online","type":{"title":"Tesla SC","id":7}}]},{"name":"Sarn Supercharger","provider":"Tesla","lat":51.535351,"lng":-3.577637,"postcode":"CF32 9SY","source":{"name":"Tesla","url":"https:\/\/www.teslamotors.com\/en_GB\/findus\/"},"connections":[],"connectors":[{"power":120,"quantity":8,"status":"online","type":{"title":"Tesla SC","id":7}}]},{"name":"Hintlesham Hall Hotel","provider":"Tesla","lat":52.053384,"lng":1.036673,"postcode":"IP8 3NS","source":{"name":"Tesla","url":"https:\/\/www.teslamotors.com\/en_GB\/findus\/"},"connections":[],"connectors":[{"power":11,"quantity":2,"status":"online","type":{"title":"Tesla Dest.","id":7}}]},{"name":"Pontlands Park","provider":"Tesla","lat":51.70923,"lng":0.50793,"postcode":"CM2 8HR","source":{"name":"Tesla","url":"https:\/\/www.teslamotors.com\/en_GB\/findus\/"},"connections":[],"connectors":[{"power":22,"quantity":1,"status":"online","type":{"title":"Tesla Dest.","id":7}}]},{"name":"Swansea Marriott Hotel","provider":"Tesla","lat":51.613644,"lng":-3.94421,"postcode":"SA13SS","source":{"name":"Tesla","url":"https:\/\/www.teslamotors.com\/en_GB\/findus\/"},"connections":[],"connectors":[{"power":22,"quantity":1,"status":"online","type":{"title":"Tesla Dest.","id":7}}]},{"name":"CitiPark Leeds Dock","provider":"Tesla","lat":53.790416,"lng":-1.530348,"postcode":"LS10 1LE","source":{"name":"Tesla","url":"https:\/\/www.teslamotors.com\/en_GB\/findus\/"},"connections":[],"connectors":[{"power":7,"quantity":2,"status":"online","type":{"title":"Tesla Dest.","id":7}}]},{"name":"Champneys Tring","provider":"Tesla","lat":51.770056,"lng":-0.629643,"postcode":"HP23 6HX","source":{"name":"Tesla","url":"https:\/\/www.teslamotors.com\/en_GB\/findus\/"},"connections":[],"connectors":[{"power":11,"quantity":2,"status":"online","type":{"title":"Tesla Dest.","id":7}}]},{"name":"Champneys Forest Mere","provider":"Tesla","lat":51.064152,"lng":-0.835497,"postcode":"GU30 7JG","source":{"name":"Tesla","url":"https:\/\/www.teslamotors.com\/en_GB\/findus\/"},"connections":[],"connectors":[{"power":11,"quantity":2,"status":"online","type":{"title":"Tesla Dest.","id":7}}]},{"name":"Lewinnick Lodge","provider":"Tesla","lat":50.411985,"lng":-5.120182,"postcode":"TR7 1QD","source":{"name":"Tesla","url":"https:\/\/www.teslamotors.com\/en_GB\/findus\/"},"connections":[],"connectors":[{"power":22,"quantity":2,"status":"online","type":{"title":"Tesla Dest.","id":7}}]},{"name":"Haven Hotel","provider":"Tesla","lat":50.683042,"lng":-1.947168,"postcode":"BH13 7QL","source":{"name":"Tesla","url":"https:\/\/www.teslamotors.com\/en_GB\/findus\/"},"connections":[],"connectors":[{"power":7,"quantity":2,"status":"online","type":{"title":"Tesla Dest.","id":7}}]},{"name":"The Camberley","provider":"Tesla","lat":53.996658,"lng":-1.540473,"postcode":"HG1 5JR","source":{"name":"Tesla","url":"https:\/\/www.teslamotors.com\/en_GB\/findus\/"},"connections":[],"connectors":[{"power":11,"quantity":1,"status":"online","type":{"title":"Tesla Dest.","id":7}}]},{"name":"Bunchrew House","provider":"Tesla","lat":57.482542,"lng":-4.300654,"postcode":"IV3 8TA","source":{"name":"Tesla","url":"https:\/\/www.teslamotors.com\/en_GB\/findus\/"},"connections":[],"connectors":[{"power":7,"quantity":2,"status":"online","type":{"title":"Tesla Dest.","id":7}}]},{"name":"Novotel London Greenwich","provider":"Tesla","lat":51.477586,"lng":-0.01415,"postcode":"SE10 8JA","source":{"name":"Tesla","url":"https:\/\/www.teslamotors.com\/en_GB\/findus\/"},"connections":[],"connectors":[{"power":7,"quantity":2,"status":"online","type":{"title":"Tesla Dest.","id":7}}]},{"name":"Royal Sportsman Hotel","provider":"Tesla","lat":52.928395,"lng":-4.133445,"postcode":"LL49 9HB","source":{"name":"Tesla","url":"https:\/\/www.teslamotors.com\/en_GB\/findus\/"},"connections":[],"connectors":[{"power":7,"quantity":1,"status":"online","type":{"title":"Tesla Dest.","id":7}}]},{"name":"The Brown's","provider":"Tesla","lat":51.771089,"lng":-4.4622,"postcode":"SA33 4RY","source":{"name":"Tesla","url":"https:\/\/www.teslamotors.com\/en_GB\/findus\/"},"connections":[],"connectors":[{"power":7,"quantity":1,"status":"online","type":{"title":"Tesla Dest.","id":7}}]},{"name":"Carbis Bay Hotel","provider":"Tesla","lat":50.198227,"lng":-5.466627,"postcode":"TR26 2NP","source":{"name":"Tesla","url":"https:\/\/www.teslamotors.com\/en_GB\/findus\/"},"connections":[],"connectors":[{"power":22,"quantity":1,"status":"online","type":{"title":"Tesla Dest.","id":7}}]},{"name":"Queen Anne's Marina","provider":"Tesla","lat":50.365046,"lng":-4.128979,"postcode":"PL4 0LP","source":{"name":"Tesla","url":"https:\/\/www.teslamotors.com\/en_GB\/findus\/"},"connections":[],"connectors":[{"power":11,"quantity":1,"status":"online","type":{"title":"Tesla Dest.","id":7}}]},{"name":"National Motorcycle Museum","provider":"Tesla","lat":52.444504,"lng":-1.707021,"postcode":"B92 0EJ","source":{"name":"Tesla","url":"https:\/\/www.teslamotors.com\/en_GB\/findus\/"},"connections":[],"connectors":[{"power":11,"quantity":2,"status":"online","type":{"title":"Tesla Dest.","id":7}}]},{"name":"Imperial Hotel","provider":"Tesla","lat":53.323206,"lng":-3.823826,"postcode":"LL30 1AP","source":{"name":"Tesla","url":"https:\/\/www.teslamotors.com\/en_GB\/findus\/"},"connections":[],"connectors":[{"power":7,"quantity":1,"status":"online","type":{"title":"Tesla Dest.","id":7}}]},{"name":"Fairmont St Andrews","provider":"Tesla","lat":56.320419,"lng":-2.730775,"postcode":"KY16 8PN","source":{"name":"Tesla","url":"https:\/\/www.teslamotors.com\/en_GB\/findus\/"},"connections":[],"connectors":[{"power":22,"quantity":2,"status":"online","type":{"title":"Tesla Dest.","id":7}}]},{"name":"The Plume of Feathers","provider":"Tesla","lat":50.351357,"lng":-5.009725,"postcode":"TR8 5AX","source":{"name":"Tesla","url":"https:\/\/www.teslamotors.com\/en_GB\/findus\/"},"connections":[],"connectors":[{"power":22,"quantity":2,"status":"online","type":{"title":"Tesla Dest.","id":7}}]},{"name":"Ellenborough Park Hotel","provider":"Tesla","lat":51.926518,"lng":-2.041776,"postcode":"GL52 3NJ","source":{"name":"Tesla","url":"https:\/\/www.teslamotors.com\/en_GB\/findus\/"},"connections":[],"connectors":[{"power":7,"quantity":2,"status":"online","type":{"title":"Tesla Dest.","id":7}}]},{"name":"Babington House","provider":"Tesla","lat":51.257913,"lng":-2.425058,"postcode":"BA11 3RW","source":{"name":"Tesla","url":"https:\/\/www.teslamotors.com\/en_GB\/findus\/"},"connections":[],"connectors":[{"power":22,"quantity":1,"status":"online","type":{"title":"Tesla Dest.","id":7}}]},{"name":"Fonab Castle","provider":"Tesla","lat":56.697811,"lng":-3.74045,"postcode":"PH16 5ND","source":{"name":"Tesla","url":"https:\/\/www.teslamotors.com\/en_GB\/findus\/"},"connections":[],"connectors":[{"power":7,"quantity":2,"status":"online","type":{"title":"Tesla Dest.","id":7}}]},{"name":"Best Western Plus Windmill Village Hotel, Golf Club & Spa","provider":"Tesla","lat":52.426967,"lng":-1.575998,"postcode":"CV5 9AL","source":{"name":"Tesla","url":"https:\/\/www.teslamotors.com\/en_GB\/findus\/"},"connections":[],"connectors":[{"power":11,"quantity":2,"status":"online","type":{"title":"Tesla Dest.","id":7}}]},{"name":"The Four Seasons Hotel Hampshire","provider":"Tesla","lat":51.257236,"lng":-0.89615,"postcode":"RG27 8TD","source":{"name":"Tesla","url":"https:\/\/www.teslamotors.com\/en_GB\/findus\/"},"connections":[],"connectors":[{"power":7,"quantity":1,"status":"online","type":{"title":"Tesla Dest.","id":7}}]},{"name":"Chelsea Design Centre","provider":"Tesla","lat":51.474985,"lng":-0.181761,"postcode":"SW100XD","source":{"name":"Tesla","url":"https:\/\/www.teslamotors.com\/en_GB\/findus\/"},"connections":[],"connectors":[{"power":7,"quantity":2,"status":"online","type":{"title":"Tesla Dest.","id":7}}]},{"name":"Hambleton Hall","provider":"Tesla","lat":52.657344,"lng":-0.668105,"postcode":"LE15 8TH","source":{"name":"Tesla","url":"https:\/\/www.teslamotors.com\/en_GB\/findus\/"},"connections":[],"connectors":[{"power":22,"quantity":1,"status":"online","type":{"title":"Tesla Dest.","id":7}}]},{"name":"CitiPark Merrion Centre","provider":"Tesla","lat":53.802178,"lng":-1.543019,"postcode":"LS2 8BT","source":{"name":"Tesla","url":"https:\/\/www.teslamotors.com\/en_GB\/findus\/"},"connections":[],"connectors":[{"power":7,"quantity":3,"status":"online","type":{"title":"Tesla Dest.","id":7}}]},{"name":"The White Horse","provider":"Tesla","lat":52.966055,"lng":0.678897,"postcode":"PE31 8BY","source":{"name":"Tesla","url":"https:\/\/www.teslamotors.com\/en_GB\/findus\/"},"connections":[],"connectors":[{"power":11,"quantity":2,"status":"online","type":{"title":"Tesla Dest.","id":7}}]},{"name":"Lingfield Park Marriott Hotel & Country Club","provider":"Tesla","lat":51.169272,"lng":-0.005498,"postcode":"RH7 6PQ","source":{"name":"Tesla","url":"https:\/\/www.teslamotors.com\/en_GB\/findus\/"},"connections":[],"connectors":[{"power":11,"quantity":2,"status":"online","type":{"title":"Tesla Dest.","id":7}}]},{"name":"Soho Farmhouse","provider":"Tesla","lat":51.940126,"lng":-1.42165,"postcode":"OX7 4JS","source":{"name":"Tesla","url":"https:\/\/www.teslamotors.com\/en_GB\/findus\/"},"connections":[],"connectors":[{"power":11,"quantity":1,"status":"online","type":{"title":"Tesla Dest.","id":7}}]},{"name":"Bedford Lodge Hotel","provider":"Tesla","lat":52.25101,"lng":0.415356,"postcode":"CB8 7BX","source":{"name":"Tesla","url":"https:\/\/www.teslamotors.com\/en_GB\/findus\/"},"connections":[],"connectors":[{"power":7,"quantity":2,"status":"online","type":{"title":"Tesla Dest.","id":7}}]},{"name":"The Talbot Hotel","provider":"Tesla","lat":51.301481,"lng":-0.489212,"postcode":"GU23 6BB","source":{"name":"Tesla","url":"https:\/\/www.teslamotors.com\/en_GB\/findus\/"},"connections":[],"connectors":[{"power":7,"quantity":2,"status":"online","type":{"title":"Tesla Dest.","id":7}}]},{"name":"Holiday Inn Garden Court Wolverhampton","provider":"Tesla","lat":52.603618,"lng":-2.141018,"postcode":"WV6 0PE","source":{"name":"Tesla","url":"https:\/\/www.teslamotors.com\/en_GB\/findus\/"},"connections":[],"connectors":[{"power":7,"quantity":2,"status":"online","type":{"title":"Tesla Dest.","id":7}}]},{"name":"Greenbanks","provider":"Tesla","lat":52.680384,"lng":0.841876,"postcode":"NR19 2NA","source":{"name":"Tesla","url":"https:\/\/www.teslamotors.com\/en_GB\/findus\/"},"connections":[],"connectors":[{"power":7,"quantity":2,"status":"online","type":{"title":"Tesla Dest.","id":7}}]},{"name":"The Fox","provider":"Tesla","lat":51.961173,"lng":-0.2199,"postcode":"SG6 2AE","source":{"name":"Tesla","url":"https:\/\/www.teslamotors.com\/en_GB\/findus\/"},"connections":[],"connectors":[{"power":11,"quantity":2,"status":"online","type":{"title":"Tesla Dest.","id":7}}]},{"name":"Cotswold House Hotel and Spa","provider":"Tesla","lat":52.050554,"lng":-1.782291,"postcode":"GL55 6AN","source":{"name":"Tesla","url":"https:\/\/www.teslamotors.com\/en_GB\/findus\/"},"connections":[],"connectors":[{"power":22,"quantity":2,"status":"online","type":{"title":"Tesla Dest.","id":7}}]},{"name":"The Royal Duchy Hotel","provider":"Tesla","lat":50.147491,"lng":-5.059909,"postcode":"TR11 4NX","source":{"name":"Tesla","url":"https:\/\/www.teslamotors.com\/en_GB\/findus\/"},"connections":[],"connectors":[{"power":22,"quantity":2,"status":"online","type":{"title":"Tesla Dest.","id":7}}]},{"name":"The Carlyon Bay Hotel","provider":"Tesla","lat":50.337394,"lng":-4.739296,"postcode":"PL25 3RD","source":{"name":"Tesla","url":"https:\/\/www.teslamotors.com\/en_GB\/findus\/"},"connections":[],"connectors":[{"power":22,"quantity":2,"status":"online","type":{"title":"Tesla Dest.","id":7}}]},{"name":"Elen's Castle Hotel and Restaurant","provider":"Tesla","lat":53.054727,"lng":-3.885812,"postcode":"LL25 0EJ","source":{"name":"Tesla","url":"https:\/\/www.teslamotors.com\/en_GB\/findus\/"},"connections":[],"connectors":[{"power":7,"quantity":1,"status":"online","type":{"title":"Tesla Dest.","id":7}}]},{"name":"The Pig Brockenhurst","provider":"Tesla","lat":50.82435,"lng":-1.553656,"postcode":"SO42 7QL","source":{"name":"Tesla","url":"https:\/\/www.teslamotors.com\/en_GB\/findus\/"},"connections":[],"connectors":[{"power":7,"quantity":1,"status":"online","type":{"title":"Tesla Dest.","id":7}}]},{"name":"The Dales Country House Hotel","provider":"Tesla","lat":52.931584,"lng":1.185421,"postcode":"NR26 8TJ","source":{"name":"Tesla","url":"https:\/\/www.teslamotors.com\/en_GB\/findus\/"},"connections":[],"connectors":[{"power":11,"quantity":1,"status":"online","type":{"title":"Tesla Dest.","id":7}}]},{"name":"Salcombe Harbour Hotel & Spa","provider":"Tesla","lat":50.235264,"lng":-3.768555,"postcode":"TQ8 8JH","source":{"name":"Tesla","url":"https:\/\/www.teslamotors.com\/en_GB\/findus\/"},"connections":[],"connectors":[{"power":7,"quantity":2,"status":"online","type":{"title":"Tesla Dest.","id":7}}]},{"name":"Indigo West India Quay","provider":"Tesla","lat":51.508362,"lng":-0.023907,"postcode":"E14 4AN","source":{"name":"Tesla","url":"https:\/\/www.teslamotors.com\/en_GB\/findus\/"},"connections":[],"connectors":[{"power":22,"quantity":1,"status":"online","type":{"title":"Tesla Dest.","id":7}}]},{"name":"Indigo Kensington","provider":"Tesla","lat":51.502018,"lng":-0.194711,"postcode":"W8 7NX","source":{"name":"Tesla","url":"https:\/\/www.teslamotors.com\/en_GB\/findus\/"},"connections":[],"connectors":[{"power":22,"quantity":2,"status":"online","type":{"title":"Tesla Dest.","id":7}}]},{"name":"Hellidon Lakes Golf & Spa Hotel","provider":"Tesla","lat":52.217197,"lng":-1.260284,"postcode":"NN11 6GG","source":{"name":"Tesla","url":"https:\/\/www.teslamotors.com\/en_GB\/findus\/"},"connections":[],"connectors":[{"power":7,"quantity":2,"status":"online","type":{"title":"Tesla Dest.","id":7}}]},{"name":"Meon Valley Marriott Hotel & Country Club","provider":"Tesla","lat":50.921647,"lng":-1.210175,"postcode":"SO32 2HQ","source":{"name":"Tesla","url":"https:\/\/www.teslamotors.com\/en_GB\/findus\/"},"connections":[],"connectors":[{"power":7,"quantity":2,"status":"online","type":{"title":"Tesla Dest.","id":7}}]},{"name":"The Mayfair Car Park","provider":"Tesla","lat":51.50497,"lng":-0.151181,"postcode":"W1K 1AB","source":{"name":"Tesla","url":"https:\/\/www.teslamotors.com\/en_GB\/findus\/"},"connections":[],"connectors":[{"power":22,"quantity":1,"status":"online","type":{"title":"Tesla Dest.","id":7}}]},{"name":"The Middlesex Stadium","provider":"Tesla","lat":51.58669,"lng":-0.441616,"postcode":"HA4 7SB","source":{"name":"Tesla","url":"https:\/\/www.teslamotors.com\/en_GB\/findus\/"},"connections":[],"connectors":[{"power":7,"quantity":2,"status":"online","type":{"title":"Tesla Dest.","id":7}}]},{"name":"Lucknam Park Hotel","provider":"Tesla","lat":51.455099,"lng":-2.259527,"postcode":"SN14 8AZ","source":{"name":"Tesla","url":"https:\/\/www.teslamotors.com\/en_GB\/findus\/"},"connections":[],"connectors":[{"power":22,"quantity":2,"status":"online","type":{"title":"Tesla Dest.","id":7}}]},{"name":"Rockliffe Hall","provider":"Tesla","lat":54.47874,"lng":-1.544861,"postcode":"DL2 2DU","source":{"name":"Tesla","url":"https:\/\/www.teslamotors.com\/en_GB\/findus\/"},"connections":[],"connectors":[{"power":7,"quantity":2,"status":"online","type":{"title":"Tesla Dest.","id":7}}]},{"name":"Careys Manor Hotel & SenSpa","provider":"Tesla","lat":50.823201,"lng":-1.571568,"postcode":"SO42 7RH","source":{"name":"Tesla","url":"https:\/\/www.teslamotors.com\/en_GB\/findus\/"},"connections":[],"connectors":[{"power":7,"quantity":1,"status":"online","type":{"title":"Tesla Dest.","id":7}}]},{"name":"The Montagu Arms Hotel","provider":"Tesla","lat":50.818394,"lng":-1.451415,"postcode":"SO42 7ZL","source":{"name":"Tesla","url":"https:\/\/www.teslamotors.com\/en_GB\/findus\/"},"connections":[],"connectors":[{"power":7,"quantity":1,"status":"online","type":{"title":"Tesla Dest.","id":7}}]},{"name":"CitiPark Clipstone Street","provider":"Tesla","lat":51.521862,"lng":-0.140954,"postcode":"W1W 5DG","source":{"name":"Tesla","url":"https:\/\/www.teslamotors.com\/en_GB\/findus\/"},"connections":[],"connectors":[{"power":7,"quantity":2,"status":"online","type":{"title":"Tesla Dest.","id":7}}]},{"name":"CitiPark Sutton","provider":"Tesla","lat":51.658417,"lng":-0.395483,"postcode":"WD17 2PS","source":{"name":"Tesla","url":"https:\/\/www.teslamotors.com\/en_GB\/findus\/"},"connections":[],"connectors":[{"power":7,"quantity":2,"status":"online","type":{"title":"Tesla Dest.","id":7}}]},{"name":"No 131","provider":"Tesla","lat":51.8971,"lng":-2.080145,"postcode":"GL50 1NW","source":{"name":"Tesla","url":"https:\/\/www.teslamotors.com\/en_GB\/findus\/"},"connections":[],"connectors":[{"power":7,"quantity":2,"status":"online","type":{"title":"Tesla Dest.","id":7}}]},{"name":"No 38 The Park","provider":"Tesla","lat":51.905982,"lng":-2.070301,"postcode":"GL52 2AH","source":{"name":"Tesla","url":"https:\/\/www.teslamotors.com\/en_GB\/findus\/"},"connections":[],"connectors":[{"power":7,"quantity":2,"status":"online","type":{"title":"Tesla Dest.","id":7}}]},{"name":"Stoneleigh Park Lodge","provider":"Tesla","lat":52.339949,"lng":-1.527122,"postcode":"CV8 2LG","source":{"name":"Tesla","url":"https:\/\/www.teslamotors.com\/en_GB\/findus\/"},"connections":[],"connectors":[{"power":7,"quantity":2,"status":"online","type":{"title":"Tesla Dest.","id":7}}]},{"name":"Dundee Supercharger","provider":"Tesla","lat":56.466428,"lng":-3.062962,"postcode":"DD25JT","source":{"name":"Tesla","url":"https:\/\/www.teslamotors.com\/en_GB\/findus\/"},"connections":[],"connectors":[{"power":120,"quantity":8,"status":"online","type":{"title":"Tesla SC","id":7}}]},{"name":"Lazaat Hotel","provider":"Tesla","lat":53.796981,"lng":-0.450486,"postcode":"Cottingham","source":{"name":"Tesla","url":"https:\/\/www.teslamotors.com\/en_GB\/findus\/"},"connections":[],"connectors":[{"power":22,"quantity":2,"status":"online","type":{"title":"Tesla Dest.","id":7}}]},{"name":"Champneys Henlow","provider":"Tesla","lat":52.031714,"lng":-0.27668,"postcode":"SG16 6BT","source":{"name":"Tesla","url":"https:\/\/www.teslamotors.com\/en_GB\/findus\/"},"connections":[],"connectors":[{"power":11,"quantity":2,"status":"online","type":{"title":"Tesla Dest.","id":7}}]},{"name":"DoubleTree by Hilton Cadbury House","provider":"Tesla","lat":51.381558,"lng":-2.806812,"postcode":"North Somerset","source":{"name":"Tesla","url":"https:\/\/www.teslamotors.com\/en_GB\/findus\/"},"connections":[],"connectors":[{"power":7,"quantity":2,"status":"online","type":{"title":"Tesla Dest.","id":7}}]},{"name":"Bents Garden & Home","provider":"Tesla","lat":53.476313,"lng":-2.49642,"postcode":"WA3 5NT","source":{"name":"Tesla","url":"https:\/\/www.teslamotors.com\/en_GB\/findus\/"},"connections":[],"connectors":[{"power":7,"quantity":2,"status":"online","type":{"title":"Tesla Dest.","id":7}}]},{"name":"The Club and Spa","provider":"Tesla","lat":51.381069,"lng":-2.808293,"postcode":"BS49 5AD","source":{"name":"Tesla","url":"https:\/\/www.teslamotors.com\/en_GB\/findus\/"},"connections":[],"connectors":[{"power":7,"quantity":1,"status":"online","type":{"title":"Tesla Dest.","id":7}}]}]}